{"type":"FeatureCollection","features":[{"type":"Feature","geometry":{"type":"Polygon","coordinates":[[[-1.95072,53.78601],[-1.92519,53.76238],[-1.92034,53.72834],[-1.93289,53.72869],[-1.92031,53.7122],[-1.94249,53.71342],[-1.95994,53.69989],[-1.93438,53.68804],[-1.90322,53.70829],[-1.85129,53.69238],[-1.83993,53.6999],[-1.81436,53.70019],[-1.82115,53.72379],[-1.84411,53.72428],[-1.79254,53.74494],[-1.77009,53.72625],[-1.75364,53.72586],[-1.73587,53.71324],[-1.73141,53.68036],[-1.7473,53.69459],[-1.81878,53.67291],[-1.85368,53.67254],[-1.84357,53.66612],[-1.8946,53.64542],[-1.93415,53.64834],[-1.97274,53.62577],[-2.00947,53.61678],[-2.02304,53.61584],[-2.02682,53.62417],[-2.05124,53.68369],[-2.09289,53.67016],[-2.11809,53.67125],[-2.13413,53.68573],[-2.14226,53.67801],[-2.14633,53.68223],[-2.17329,53.72301],[-2.13117,53.75154],[-2.13636,53.7801],[-2.12482,53.78806],[-2.12836,53.79903],[-2.11228,53.80571],[-2.06122,53.82562],[-1.98677,53.79615],[-1.98085,53.78635],[-1.95072,53.78601]]]},"properties":{"PCON24CD":"E14001147","PCON24NM":"Calder Valley"}}]}