{"type":"FeatureCollection","crs":{"type":"name","properties":{"name":"EPSG:4326"}},"features":[{"type":"Feature","geometry":{"type":"Polygon","coordinates":[[[-1.5901,50.7636],[-1.6229,50.7633],[-1.6318,50.7592],[-1.6372,50.7626],[-1.6399,50.7717],[-1.6793,50.7663],[-1.6934,50.77],[-1.693,50.7747],[-1.7015,50.7781],[-1.7141,50.7701],[-1.7172,50.7631],[-1.7104,50.7566],[-1.7263,50.7514],[-1.7269,50.7554],[-1.7327,50.759],[-1.7321,50.7625],[-1.74,50.762],[-1.7463,50.7735],[-1.7339,50.7804],[-1.7307,50.7765],[-1.7269,50.7778],[-1.7308,50.7825],[-1.7272,50.7864],[-1.7475,50.7816],[-1.7464,50.7851],[-1.7513,50.7857],[-1.7579,50.7967],[-1.7733,50.7982],[-1.7797,50.8049],[-1.7878,50.8004],[-1.8012,50.805],[-1.8035,50.81],[-1.8004,50.8142],[-1.7927,50.8148],[-1.7889,50.8108],[-1.7798,50.8094],[-1.7787,50.8162],[-1.7692,50.8168],[-1.7685,50.8341],[-1.7623,50.8423],[-1.7658,50.8577],[-1.7693,50.8589],[-1.7754,50.8716],[-1.772,50.8739],[-1.7746,50.8739],[-1.7762,50.879],[-1.7725,50.8794],[-1.7775,50.8876],[-1.7721,50.8898],[-1.7712,50.8952],[-1.7751,50.9011],[-1.7716,50.9084],[-1.7744,50.9278],[-1.767,50.9311],[-1.7841,50.9413],[-1.7681,50.9668],[-1.7574,50.9694],[-1.7542,50.9779],[-1.7421,50.9731],[-1.7308,50.9772],[-1.7172,50.9761],[-1.717,50.9893],[-1.7136,50.9902],[-1.7155,50.9914],[-1.6969,50.9891],[-1.6876,50.9958],[-1.6582,50.9981],[-1.6602,51.0001],[-1.6539,51.0051],[-1.641,51.0002],[-1.6286,51.0039],[-1.625,50.9906],[-1.6414,50.9884],[-1.6343,50.9797],[-1.5919,50.9709],[-1.5357,50.954],[-1.5375,50.9434],[-1.5287,50.9401],[-1.5235,50.9338],[-1.5253,50.9186],[-1.5213,50.9137],[-1.5119,50.9116],[-1.5027,50.9025],[-1.4818,50.8988],[-1.4566,50.8851],[-1.4469,50.8834],[-1.4415,50.8872],[-1.4302,50.8871],[-1.4309,50.8826],[-1.4236,50.8762],[-1.4054,50.8738],[-1.4356,50.8637],[-1.4191,50.8507],[-1.396,50.8438],[-1.3967,50.8392],[-1.3908,50.8303],[-1.3945,50.8262],[-1.3855,50.8245],[-1.3867,50.8212],[-1.3791,50.8156],[-1.3742,50.8161],[-1.3771,50.8057],[-1.3655,50.807],[-1.363,50.8144],[-1.367,50.8183],[-1.3597,50.8252],[-1.3483,50.8248],[-1.3432,50.8294],[-1.3395,50.827],[-1.3297,50.8283],[-1.328,50.8327],[-1.3171,50.8232],[-1.3012,50.816],[-1.3033,50.8098],[-1.3175,50.807],[-1.3303,50.7998],[-1.3419,50.7859],[-1.3469,50.7846],[-1.3459,50.782],[-1.3481,50.7849],[-1.3565,50.7828],[-1.375,50.785],[-1.3736,50.7822],[-1.3781,50.7801],[-1.3917,50.7775],[-1.4153,50.7672],[-1.4703,50.758],[-1.5163,50.7421],[-1.537,50.7274],[-1.545,50.7253],[-1.5561,50.7147],[-1.5477,50.7078],[-1.5503,50.7057],[-1.5658,50.7088],[-1.5775,50.7154],[-1.5711,50.719],[-1.5748,50.7244],[-1.5662,50.7274],[-1.5663,50.7315],[-1.559,50.7277],[-1.5462,50.7352],[-1.5504,50.7374],[-1.5525,50.7445],[-1.5419,50.7456],[-1.5348,50.7518],[-1.528,50.7484],[-1.5236,50.7527],[-1.5345,50.7637],[-1.5432,50.7657],[-1.5447,50.7713],[-1.549,50.773],[-1.552,50.7725],[-1.5531,50.7675],[-1.559,50.7714],[-1.5859,50.7669],[-1.5825,50.764],[-1.5778,50.7657],[-1.5731,50.7581],[-1.5617,50.7543],[-1.5697,50.7542],[-1.5653,50.7462],[-1.5711,50.745],[-1.5737,50.75],[-1.5842,50.7531],[-1.5901,50.7636]],[[-1.3383,50.8208],[-1.3265,50.8149],[-1.3214,50.8174],[-1.3288,50.8234],[-1.3383,50.8208]]]},"properties":{"NAME":"NEW FOREST","CODE":5,"DESIG_DATE":1143849600000}},{"type":"Feature","geometry":{"type":"Polygon","coordinates":[[[-3.8953,51.1577],[-3.9194,51.1584],[-3.9244,51.1612],[-3.9237,51.1668],[-3.9373,51.172],[-3.9594,51.1668],[-3.9591,51.1695],[-3.9726,51.1767],[-3.9762,51.184],[-3.9736,51.1878],[-3.9758,51.1928],[-3.9833,51.1982],[-3.9979,51.2034],[-4.0426,51.2081],[-4.0272,51.2169],[-3.9768,51.2213],[-3.9587,51.2197],[-3.927,51.2322],[-3.9038,51.2299],[-3.8933,51.2247],[-3.851,51.2353],[-3.8104,51.2322],[-3.797,51.2395],[-3.7949,51.244],[-3.7856,51.2469],[-3.7676,51.238],[-3.7278,51.2361],[-3.7155,51.2322],[-3.6404,51.2239],[-3.6376,51.227],[-3.6187,51.2184],[-3.5889,51.225],[-3.5791,51.2324],[-3.5434,51.2336],[-3.5076,51.225],[-3.4977,51.2258],[-3.4842,51.2203],[-3.4777,51.2133],[-3.4847,51.2145],[-3.4857,51.2099],[-3.4907,51.2087],[-3.5023,51.2119],[-3.505,51.2104],[-3.5047,51.2009],[-3.5087,51.1979],[-3.4991,51.1968],[-3.4967,51.1996],[-3.4882,51.1934],[-3.4621,51.1893],[-3.4572,51.1941],[-3.4413,51.1876],[-3.4291,51.1816],[-3.4268,51.1773],[-3.4288,51.1738],[-3.4225,51.173],[-3.4254,51.1669],[-3.4136,51.1667],[-3.4109,51.1636],[-3.4101,51.1576],[-3.4135,51.1539],[-3.4078,51.1523],[-3.4081,51.1468],[-3.4008,51.147],[-3.3985,51.1436],[-3.3793,51.1481],[-3.3765,51.1431],[-3.3672,51.1477],[-3.3621,51.1444],[-3.3533,51.1478],[-3.3254,51.1285],[-3.308,51.1219],[-3.299,51.1049],[-3.311,51.1036],[-3.3226,51.0966],[-3.3661,51.1011],[-3.3931,51.0993],[-3.403,51.0969],[-3.4095,51.09],[-3.4202,51.0906],[-3.4359,51.0854],[-3.4373,51.0727],[-3.4413,51.0688],[-3.4346,51.0664],[-3.4336,51.0621],[-3.4404,51.0533],[-3.4383,51.0511],[-3.4704,51.046],[-3.4687,51.0393],[-3.477,51.0308],[-3.4839,51.0339],[-3.5043,51.0301],[-3.5205,51.0259],[-3.52,51.0234],[-3.5266,51.0208],[-3.5331,51.0214],[-3.5404,51.0308],[-3.5528,51.0374],[-3.558,51.0357],[-3.5818,51.0455],[-3.6169,51.0417],[-3.6665,51.0516],[-3.6996,51.048],[-3.7006,51.0507],[-3.7129,51.0529],[-3.7229,51.0588],[-3.7305,51.055],[-3.7407,51.0588],[-3.7716,51.0591],[-3.7746,51.0657],[-3.7822,51.0612],[-3.7996,51.0699],[-3.8027,51.0748],[-3.8129,51.0753],[-3.8162,51.093],[-3.8355,51.0967],[-3.841,51.1005],[-3.8553,51.1007],[-3.8646,51.0971],[-3.8605,51.1057],[-3.862,51.1206],[-3.8743,51.1325],[-3.874,51.1383],[-3.8796,51.1438],[-3.8895,51.1448],[-3.8867,51.1465],[-3.8953,51.1577]]]},"properties":{"NAME":"EXMOOR","CODE":3,"DESIG_DATE":-479779200000}},{"type":"Feature","geometry":{"type":"Polygon","coordinates":[[[-3.8791,50.7297],[-3.8763,50.7261],[-3.8813,50.7201],[-3.8608,50.7168],[-3.8476,50.7197],[-3.808,50.7162],[-3.7707,50.7258],[-3.7639,50.7259],[-3.7564,50.7208],[-3.7375,50.7235],[-3.7242,50.7156],[-3.7243,50.7097],[-3.6934,50.6997],[-3.6796,50.6906],[-3.6714,50.6912],[-3.669,50.685],[-3.6539,50.673],[-3.6463,50.6715],[-3.6387,50.6535],[-3.6416,50.6501],[-3.6351,50.6385],[-3.6395,50.6342],[-3.6388,50.6247],[-3.6317,50.6185],[-3.6642,50.6053],[-3.6985,50.6049],[-3.7029,50.5977],[-3.7088,50.5967],[-3.6928,50.5884],[-3.6879,50.5818],[-3.6821,50.5813],[-3.6757,50.5648],[-3.679,50.5583],[-3.677,50.5543],[-3.693,50.5439],[-3.7052,50.5414],[-3.7283,50.5294],[-3.7667,50.5057],[-3.7687,50.5023],[-3.7658,50.4934],[-3.7691,50.4858],[-3.7716,50.4865],[-3.7706,50.4827],[-3.7826,50.4778],[-3.7868,50.4729],[-3.7924,50.4484],[-3.8049,50.4297],[-3.8189,50.4219],[-3.8378,50.4174],[-3.8703,50.396],[-3.8834,50.392],[-3.8865,50.3945],[-3.8987,50.3926],[-3.9181,50.3967],[-3.9318,50.3934],[-3.958,50.407],[-3.9711,50.4097],[-3.9778,50.4209],[-3.9776,50.4268],[-3.9852,50.4302],[-3.9817,50.4361],[-3.9865,50.4395],[-3.9826,50.4422],[-3.9859,50.4492],[-4.0034,50.4585],[-4.0065,50.4575],[-4.0057,50.453],[-4.0138,50.4492],[-4.0275,50.4609],[-4.0366,50.4635],[-4.0392,50.4555],[-4.028,50.4516],[-4.0369,50.4458],[-4.0319,50.4407],[-4.0355,50.439],[-4.0483,50.4445],[-4.064,50.4406],[-4.0688,50.4562],[-4.0769,50.4586],[-4.0788,50.4565],[-4.0824,50.4611],[-4.0903,50.4629],[-4.0988,50.4606],[-4.0999,50.4534],[-4.1074,50.4511],[-4.1105,50.454],[-4.1086,50.4632],[-4.1144,50.4704],[-4.1033,50.47],[-4.0995,50.473],[-4.094,50.4818],[-4.0976,50.4903],[-4.1118,50.4904],[-4.106,50.4946],[-4.1079,50.5002],[-4.1219,50.508],[-4.1414,50.5072],[-4.1474,50.5003],[-4.1568,50.5069],[-4.1368,50.512],[-4.1328,50.5151],[-4.1336,50.519],[-4.1254,50.5249],[-4.1307,50.5315],[-4.1217,50.5334],[-4.1205,50.5364],[-4.1308,50.5472],[-4.1238,50.5495],[-4.1248,50.5531],[-4.1215,50.5556],[-4.1252,50.5557],[-4.1229,50.558],[-4.1256,50.56],[-4.1292,50.5591],[-4.125,50.5644],[-4.1373,50.584],[-4.1526,50.5917],[-4.1639,50.5935],[-4.1647,50.6049],[-4.1427,50.624],[-4.128,50.6289],[-4.1186,50.6284],[-4.1229,50.6348],[-4.1145,50.6482],[-4.107,50.651],[-4.1054,50.6548],[-4.0982,50.6519],[-4.0899,50.6548],[-4.0856,50.6651],[-4.0869,50.6758],[-4.0773,50.6931],[-4.0287,50.7281],[-4.0138,50.7326],[-4.0045,50.7322],[-4.0009,50.729],[-3.9701,50.7401],[-3.9472,50.7381],[-3.927,50.741],[-3.9012,50.7382],[-3.8791,50.7297]]]},"properties":{"NAME":"DARTMOOR","CODE":2,"DESIG_DATE":-573523200000}},{"type":"Feature","geometry":{"type":"Polygon","coordinates":[[[-1.8536,53.2934],[-1.8603,53.2976],[-1.8534,53.3029],[-1.8585,53.3032],[-1.8564,53.306],[-1.8598,53.3063],[-1.8602,53.311],[-1.8662,53.3121],[-1.8753,53.3052],[-1.8841,53.307],[-1.8859,53.312],[-1.8925,53.3147],[-1.8998,53.333],[-1.9139,53.3356],[-1.9156,53.3411],[-1.9345,53.3471],[-1.9397,53.3415],[-1.9474,53.3413],[-1.9648,53.3513],[-1.9693,53.3572],[-1.9689,53.3661],[-1.9563,53.373],[-1.9404,53.3685],[-1.937,53.3709],[-1.9393,53.3741],[-1.9226,53.3747],[-1.9308,53.3821],[-1.943,53.3806],[-1.9583,53.3842],[-1.9706,53.3821],[-1.9722,53.3864],[-1.9823,53.3875],[-1.9797,53.3959],[-1.9987,53.4014],[-1.9923,53.4152],[-1.9879,53.415],[-1.9878,53.4187],[-1.9767,53.426],[-1.9828,53.4352],[-1.9703,53.4354],[-1.959,53.4298],[-1.9445,53.429],[-1.9313,53.4338],[-1.9256,53.4425],[-1.9309,53.4522],[-1.9435,53.4571],[-1.9398,53.4672],[-1.9563,53.4645],[-1.9706,53.4695],[-1.9678,53.4725],[-1.978,53.4794],[-1.9776,53.4851],[-1.9708,53.4952],[-1.9727,53.5025],[-1.9634,53.5098],[-1.997,53.5221],[-1.9985,53.5286],[-1.9801,53.5274],[-1.9819,53.5309],[-1.9677,53.5377],[-1.9762,53.5348],[-1.9822,53.5399],[-1.9931,53.5415],[-1.9936,53.5472],[-1.9832,53.5577],[-1.9864,53.5587],[-1.9847,53.5629],[-1.977,53.569],[-1.9835,53.5795],[-1.9604,53.5877],[-1.9363,53.5875],[-1.9314,53.5915],[-1.9084,53.5965],[-1.8802,53.5972],[-1.8773,53.5935],[-1.8694,53.5942],[-1.8587,53.5849],[-1.8527,53.5866],[-1.8501,53.584],[-1.8459,53.5669],[-1.8319,53.5631],[-1.8371,53.5561],[-1.8377,53.5503],[-1.8345,53.5495],[-1.8366,53.5477],[-1.8239,53.5465],[-1.8204,53.5492],[-1.7974,53.5339],[-1.776,53.5354],[-1.7668,53.5262],[-1.7692,53.5204],[-1.7635,53.5184],[-1.7076,53.5224],[-1.7038,53.51],[-1.6923,53.5019],[-1.6762,53.4972],[-1.6687,53.4886],[-1.649,53.4826],[-1.6404,53.4755],[-1.6349,53.477],[-1.6274,53.4709],[-1.5933,53.4669],[-1.5967,53.4631],[-1.6024,53.4626],[-1.5647,53.4515],[-1.5849,53.4407],[-1.5722,53.4349],[-1.5694,53.4246],[-1.5729,53.4196],[-1.5709,53.413],[-1.5837,53.4109],[-1.582,53.4077],[-1.598,53.3999],[-1.5919,53.3951],[-1.591,53.3845],[-1.5633,53.3855],[-1.5635,53.382],[-1.5701,53.3788],[-1.5864,53.3787],[-1.5867,53.3734],[-1.5953,53.3692],[-1.5833,53.3647],[-1.5857,53.3638],[-1.5855,53.3575],[-1.5644,53.3496],[-1.5639,53.339],[-1.5704,53.33],[-1.558,53.3291],[-1.5533,53.3256],[-1.5541,53.3184],[-1.5618,53.3161],[-1.5558,53.3116],[-1.5618,53.3066],[-1.557,53.3025],[-1.5604,53.2981],[-1.5402,53.2955],[-1.5446,53.288],[-1.535,53.2829],[-1.5474,53.2771],[-1.5535,53.2677],[-1.5445,53.2678],[-1.5456,53.2501],[-1.5366,53.2394],[-1.5439,53.2382],[-1.545,53.2257],[-1.5348,53.2251],[-1.5396,53.2209],[-1.536,53.216],[-1.5425,53.2119],[-1.5173,53.2061],[-1.5156,53.2025],[-1.5483,53.1999],[-1.5528,53.1963],[-1.5817,53.1916],[-1.6095,53.1968],[-1.6163,53.1929],[-1.6184,53.1902],[-1.6125,53.1869],[-1.6138,53.1807],[-1.6104,53.1771],[-1.6148,53.1717],[-1.6138,53.1646],[-1.6196,53.1653],[-1.6244,53.1565],[-1.6202,53.1538],[-1.6082,53.1541],[-1.603,53.1485],[-1.5836,53.1437],[-1.579,53.1361],[-1.5835,53.1316],[-1.6059,53.1328],[-1.5982,53.1296],[-1.6032,53.1275],[-1.5932,53.1213],[-1.5951,53.1198],[-1.5921,53.1141],[-1.5784,53.113],[-1.5989,53.106],[-1.6166,53.1039],[-1.6328,53.1075],[-1.6376,53.1154],[-1.6577,53.1113],[-1.659,53.1067],[-1.6657,53.1028],[-1.6699,53.1057],[-1.6794,53.1052],[-1.6824,53.1029],[-1.6809,53.0983],[-1.6856,53.0872],[-1.7031,53.0713],[-1.7017,53.0672],[-1.7081,53.0633],[-1.7076,53.0554],[-1.7143,53.0516],[-1.7129,53.0496],[-1.7174,53.0423],[-1.7235,53.04],[-1.724,53.0352],[-1.738,53.0347],[-1.7382,53.0371],[-1.7456,53.0385],[-1.7578,53.0364],[-1.7683,53.0441],[-1.7788,53.0431],[-1.781,53.046],[-1.7901,53.0429],[-1.7909,53.0383],[-1.7947,53.0393],[-1.7937,53.0365],[-1.8033,53.0383],[-1.8087,53.0339],[-1.8437,53.0371],[-1.8584,53.0474],[-1.8827,53.0514],[-1.8908,53.0603],[-1.906,53.064],[-1.9136,53.0713],[-1.9352,53.0789],[-1.9518,53.09],[-1.9603,53.0982],[-1.9658,53.1097],[-1.9591,53.133],[-1.9769,53.1357],[-1.9801,53.1429],[-1.9843,53.1427],[-1.9882,53.1356],[-2.0197,53.1448],[-2.0489,53.1453],[-2.0582,53.1533],[-2.0585,53.1623],[-2.0636,53.17],[-2.0973,53.1713],[-2.1019,53.1903],[-2.108,53.1914],[-2.0924,53.2042],[-2.0878,53.2018],[-2.0824,53.2033],[-2.0783,53.2089],[-2.0702,53.2068],[-2.0619,53.212],[-2.0586,53.2106],[-2.0598,53.2131],[-2.0556,53.2128],[-2.0567,53.2187],[-2.0477,53.2255],[-2.0589,53.2393],[-2.0746,53.2474],[-2.0747,53.2501],[-2.0697,53.2519],[-2.0721,53.2543],[-2.0672,53.2607],[-2.0804,53.2667],[-2.0819,53.2748],[-2.0712,53.2859],[-2.0783,53.2894],[-2.0839,53.3024],[-2.096,53.3126],[-2.0857,53.3098],[-2.0755,53.3142],[-2.0725,53.3199],[-2.0853,53.3244],[-2.0756,53.3308],[-2.07,53.3409],[-2.06,53.338],[-2.0632,53.3454],[-2.0578,53.3427],[-2.059,53.3479],[-2.0554,53.3552],[-2.0475,53.3491],[-2.0333,53.3465],[-2.0319,53.3408],[-2.0361,53.3358],[-2.0092,53.3314],[-2.0118,53.3276],[-2.0102,53.3229],[-1.9787,53.3104],[-1.9753,53.3008],[-1.9674,53.3042],[-1.9735,53.3107],[-1.9703,53.3118],[-1.9583,53.3101],[-1.9522,53.306],[-1.9434,53.3065],[-1.9316,53.3003],[-1.9289,53.3038],[-1.9223,53.3047],[-1.8998,53.3018],[-1.9108,53.2847],[-1.9265,53.2846],[-1.9519,53.2736],[-1.9466,53.2664],[-1.9564,53.2611],[-1.9588,53.254],[-1.9577,53.2507],[-1.9431,53.2445],[-1.9435,53.2321],[-1.9464,53.2283],[-1.9235,53.2188],[-1.9108,53.2217],[-1.8879,53.2198],[-1.8729,53.2159],[-1.8629,53.2053],[-1.8414,53.1972],[-1.8423,53.1947],[-1.8316,53.1976],[-1.8323,53.203],[-1.8275,53.2046],[-1.8319,53.2057],[-1.8313,53.2107],[-1.8532,53.2166],[-1.8878,53.2354],[-1.8798,53.2378],[-1.8779,53.2459],[-1.8712,53.2472],[-1.8748,53.2497],[-1.8724,53.2545],[-1.8757,53.2582],[-1.861,53.2579],[-1.8542,53.2492],[-1.8371,53.2493],[-1.8305,53.2524],[-1.8443,53.2631],[-1.8458,53.2694],[-1.8422,53.2756],[-1.8557,53.2846],[-1.8536,53.2934]]]},"properties":{"NAME":"PEAK DISTRICT","CODE":8,"DESIG_DATE":-590457600000}},{"type":"Feature","geometry":{"type":"Polygon","coordinates":[[[-1.3041,54.3253],[-1.3104,54.3246],[-1.3068,54.3324],[-1.3247,54.3357],[-1.3252,54.3412],[-1.3302,54.3454],[-1.3276,54.3505],[-1.3115,54.3503],[-1.2996,54.3627],[-1.3236,54.3653],[-1.3208,54.3677],[-1.3204,54.3819],[-1.3063,54.4015],[-1.2615,54.4169],[-1.2425,54.4326],[-1.224,54.4396],[-1.2154,54.439],[-1.2102,54.433],[-1.2054,54.4344],[-1.1961,54.4274],[-1.1285,54.4319],[-1.1099,54.4276],[-1.1112,54.4337],[-1.104,54.4415],[-1.1101,54.4465],[-1.1112,54.4548],[-1.0978,54.4549],[-1.0889,54.4621],[-1.0999,54.4691],[-1.1081,54.484],[-1.1241,54.4957],[-1.1287,54.503],[-1.1229,54.5055],[-1.0999,54.529],[-1.0844,54.5244],[-1.065,54.5258],[-1.0527,54.5222],[-1.0223,54.5275],[-1.0202,54.5289],[-1.0232,54.5334],[-1.0095,54.5339],[-1.0007,54.531],[-0.9943,54.5238],[-0.9887,54.5274],[-0.9507,54.5134],[-0.9462,54.5092],[-0.9344,54.5071],[-0.9364,54.5156],[-0.9207,54.514],[-0.9155,54.5201],[-0.896,54.522],[-0.9002,54.5289],[-0.8912,54.5281],[-0.8845,54.5328],[-0.8598,54.5314],[-0.8568,54.5371],[-0.862,54.5442],[-0.8595,54.5483],[-0.8617,54.5507],[-0.8482,54.5715],[-0.8085,54.5593],[-0.7806,54.5618],[-0.7788,54.5583],[-0.7715,54.5572],[-0.7727,54.5535],[-0.764,54.5502],[-0.7657,54.547],[-0.7501,54.5432],[-0.744,54.5374],[-0.7484,54.5331],[-0.7446,54.5291],[-0.7196,54.5312],[-0.72,54.5347],[-0.7172,54.533],[-0.7187,54.5359],[-0.7136,54.5356],[-0.7029,54.5326],[-0.7056,54.5326],[-0.7027,54.5273],[-0.6927,54.5208],[-0.6782,54.5199],[-0.6776,54.5147],[-0.6711,54.512],[-0.6729,54.5069],[-0.6806,54.5051],[-0.6692,54.4946],[-0.6663,54.4971],[-0.6622,54.4922],[-0.644,54.4913],[-0.6501,54.4849],[-0.6484,54.4809],[-0.6596,54.4772],[-0.6599,54.4721],[-0.6698,54.4676],[-0.6635,54.4634],[-0.6718,54.4578],[-0.6704,54.4544],[-0.6757,54.4543],[-0.6732,54.4477],[-0.6553,54.4525],[-0.6605,54.4613],[-0.6225,54.4716],[-0.6003,54.4632],[-0.5962,54.471],[-0.6011,54.479],[-0.5951,54.4814],[-0.5919,54.4895],[-0.5832,54.4874],[-0.5853,54.4847],[-0.5724,54.4828],[-0.5564,54.4654],[-0.5439,54.4621],[-0.5381,54.4564],[-0.5339,54.4572],[-0.5302,54.4512],[-0.5264,54.452],[-0.5204,54.4475],[-0.5203,54.4409],[-0.5307,54.4334],[-0.525,54.4318],[-0.529,54.4264],[-0.5242,54.4214],[-0.5237,54.4235],[-0.5233,54.4181],[-0.5051,54.4123],[-0.501,54.4098],[-0.5037,54.4084],[-0.491,54.411],[-0.4922,54.4087],[-0.4835,54.4028],[-0.4704,54.397],[-0.4483,54.372],[-0.4455,54.3589],[-0.4389,54.3572],[-0.4327,54.3504],[-0.4298,54.345],[-0.432,54.3406],[-0.4233,54.3403],[-0.4186,54.333],[-0.4411,54.3265],[-0.4457,54.3328],[-0.4433,54.3388],[-0.4565,54.3407],[-0.4745,54.3331],[-0.4661,54.3186],[-0.4706,54.315],[-0.4626,54.2979],[-0.4519,54.2977],[-0.4477,54.2941],[-0.4513,54.2894],[-0.4495,54.2837],[-0.4529,54.2776],[-0.4623,54.2731],[-0.4769,54.2584],[-0.4807,54.2487],[-0.5058,54.2398],[-0.5323,54.2352],[-0.5636,54.2593],[-0.5766,54.2644],[-0.5789,54.2696],[-0.5867,54.2686],[-0.5884,54.2711],[-0.5964,54.2686],[-0.6251,54.2723],[-0.6278,54.2763],[-0.6325,54.2766],[-0.6545,54.2561],[-0.6947,54.2444],[-0.7044,54.2442],[-0.7087,54.2374],[-0.703,54.2267],[-0.7136,54.227],[-0.7511,54.2329],[-0.7479,54.2448],[-0.7295,54.2534],[-0.7392,54.2619],[-0.7355,54.264],[-0.7697,54.2569],[-0.7692,54.262],[-0.7643,54.2639],[-0.7549,54.2853],[-0.7502,54.2897],[-0.7542,54.3066],[-0.7729,54.3093],[-0.7745,54.2986],[-0.7946,54.2941],[-0.8345,54.2971],[-0.8418,54.2925],[-0.8448,54.2829],[-0.8532,54.2792],[-0.8575,54.2687],[-0.8553,54.2652],[-0.8585,54.262],[-0.8709,54.2604],[-0.8943,54.2637],[-0.901,54.2743],[-0.9094,54.2733],[-0.9086,54.276],[-0.9232,54.2811],[-0.9279,54.2888],[-0.9385,54.2941],[-0.9432,54.2928],[-0.9535,54.301],[-0.976,54.2866],[-0.9776,54.2787],[-0.9697,54.2728],[-0.9753,54.2738],[-0.9754,54.2709],[-0.9856,54.2741],[-0.9939,54.283],[-0.9982,54.282],[-1.0026,54.2887],[-1.0188,54.283],[-1.0344,54.2856],[-1.0308,54.2765],[-1.0227,54.2688],[-1.0268,54.2623],[-1.0265,54.2505],[-1.0618,54.2466],[-1.0569,54.2379],[-1.0622,54.2247],[-1.0612,54.2125],[-1.0417,54.2045],[-1.1186,54.2015],[-1.134,54.1966],[-1.1556,54.1965],[-1.1617,54.1893],[-1.1893,54.183],[-1.1871,54.187],[-1.1943,54.1871],[-1.1923,54.1915],[-1.2065,54.2001],[-1.2145,54.2098],[-1.2385,54.2187],[-1.2347,54.2275],[-1.2242,54.2295],[-1.2345,54.2372],[-1.2371,54.2462],[-1.2478,54.25],[-1.2467,54.2541],[-1.2505,54.2584],[-1.2471,54.2585],[-1.247,54.2622],[-1.2533,54.2724],[-1.2667,54.2677],[-1.2816,54.2736],[-1.2831,54.2949],[-1.2808,54.3001],[-1.2962,54.3027],[-1.2975,54.3083],[-1.2784,54.3121],[-1.2805,54.3192],[-1.292,54.3246],[-1.3041,54.3253]]]},"properties":{"NAME":"NORTH YORK MOORS","CODE":7,"DESIG_DATE":-539395200000}},{"type":"Feature","geometry":{"type":"Polygon","coordinates":[[[-3.0592,54.7629],[-3.0571,54.7615],[-3.059,54.7547],[-3.0523,54.7494],[-3.0219,54.7495],[-3.0262,54.7479],[-3.0217,54.746],[-3.0235,54.7422],[-3.0119,54.7347],[-2.9966,54.7336],[-2.9918,54.7283],[-2.9747,54.7259],[-2.96,54.6934],[-2.9736,54.6792],[-2.9289,54.657],[-2.9244,54.6523],[-2.9232,54.643],[-2.88,54.6435],[-2.8685,54.6394],[-2.823,54.6461],[-2.7938,54.6371],[-2.7909,54.6322],[-2.7835,54.6327],[-2.7841,54.6291],[-2.7787,54.6225],[-2.7817,54.6192],[-2.7733,54.6119],[-2.7585,54.62],[-2.7539,54.6264],[-2.7466,54.6177],[-2.7351,54.6244],[-2.7233,54.6116],[-2.7276,54.6113],[-2.7172,54.6084],[-2.7147,54.5977],[-2.6987,54.5887],[-2.6973,54.5844],[-2.7004,54.572],[-2.694,54.558],[-2.7088,54.5575],[-2.7191,54.5537],[-2.719,54.551],[-2.6944,54.537],[-2.701,54.5316],[-2.6979,54.5286],[-2.6996,54.5238],[-2.6806,54.5167],[-2.681,54.5052],[-2.6761,54.4976],[-2.6711,54.4734],[-2.6641,54.4731],[-2.6467,54.48],[-2.6343,54.4634],[-2.6257,54.463],[-2.6254,54.4538],[-2.6198,54.449],[-2.6221,54.4458],[-2.6005,54.4347],[-2.6,54.42],[-2.6068,54.4075],[-2.6054,54.401],[-2.5832,54.3831],[-2.5837,54.3772],[-2.6014,54.3793],[-2.641,54.3704],[-2.6716,54.3795],[-2.675,54.383],[-2.6733,54.386],[-2.6786,54.3875],[-2.6874,54.4],[-2.6966,54.3991],[-2.7061,54.4035],[-2.7109,54.3973],[-2.7352,54.3865],[-2.7423,54.3755],[-2.7709,54.3739],[-2.7744,54.3688],[-2.7844,54.3746],[-2.7934,54.3755],[-2.7879,54.3693],[-2.7977,54.3641],[-2.7858,54.3573],[-2.7608,54.3347],[-2.768,54.3331],[-2.7633,54.3275],[-2.766,54.3264],[-2.7673,54.3151],[-2.7723,54.307],[-2.7713,54.3001],[-2.7668,54.3004],[-2.7693,54.2947],[-2.7635,54.293],[-2.7678,54.2881],[-2.7673,54.2796],[-2.7721,54.2749],[-2.7846,54.273],[-2.7911,54.2792],[-2.7935,54.2646],[-2.8074,54.2653],[-2.8143,54.2625],[-2.8118,54.2577],[-2.815,54.2559],[-2.8074,54.251],[-2.8144,54.2491],[-2.8136,54.244],[-2.801,54.2456],[-2.7976,54.2416],[-2.8036,54.2337],[-2.8048,54.2261],[-2.8119,54.2208],[-2.8316,54.2192],[-2.8397,54.2088],[-2.8392,54.2023],[-2.867,54.1917],[-2.8785,54.1936],[-2.8784,54.202],[-2.8875,54.2134],[-2.8972,54.2107],[-2.9032,54.2148],[-2.911,54.2147],[-2.9131,54.2043],[-2.9194,54.2012],[-2.9307,54.2044],[-2.9335,54.2018],[-2.9346,54.2059],[-2.9506,54.2051],[-2.9526,54.2094],[-2.9494,54.212],[-2.9616,54.2209],[-2.9602,54.2258],[-2.9852,54.2298],[-2.9912,54.2289],[-2.9951,54.2222],[-3.0084,54.2281],[-3.0161,54.2198],[-3.025,54.217],[-3.0383,54.227],[-3.0516,54.2248],[-3.0521,54.2358],[-3.0793,54.2583],[-3.1064,54.2596],[-3.1223,54.2529],[-3.1439,54.2562],[-3.1587,54.2533],[-3.1788,54.2566],[-3.1806,54.2656],[-3.2033,54.2711],[-3.21,54.2771],[-3.2159,54.2693],[-3.2259,54.271],[-3.2243,54.2757],[-3.2333,54.2835],[-3.2394,54.2726],[-3.2585,54.2684],[-3.2651,54.2561],[-3.2865,54.2508],[-3.2861,54.2454],[-3.3028,54.2378],[-3.3236,54.2226],[-3.331,54.2216],[-3.3359,54.2106],[-3.3484,54.2064],[-3.3736,54.234],[-3.4004,54.2537],[-3.4291,54.2867],[-3.4237,54.3095],[-3.4286,54.3207],[-3.4399,54.3307],[-3.4428,54.3419],[-3.473,54.359],[-3.4361,54.3742],[-3.4323,54.3731],[-3.4345,54.3742],[-3.4308,54.3767],[-3.4227,54.3755],[-3.4159,54.3801],[-3.4202,54.3838],[-3.4197,54.3936],[-3.4308,54.4028],[-3.4346,54.4136],[-3.4795,54.4414],[-3.469,54.4451],[-3.4652,54.451],[-3.4673,54.4561],[-3.4615,54.464],[-3.4624,54.4736],[-3.4512,54.495],[-3.4639,54.4997],[-3.4604,54.5033],[-3.4803,54.5094],[-3.4811,54.5161],[-3.4955,54.5187],[-3.4629,54.531],[-3.4391,54.5302],[-3.4045,54.544],[-3.4159,54.5537],[-3.4165,54.566],[-3.4202,54.5679],[-3.4185,54.5711],[-3.3859,54.5929],[-3.3685,54.5908],[-3.3614,54.5954],[-3.3633,54.5977],[-3.3729,54.5929],[-3.3788,54.598],[-3.3954,54.5989],[-3.3884,54.606],[-3.3898,54.6111],[-3.376,54.6196],[-3.3914,54.6266],[-3.3825,54.6385],[-3.3717,54.638],[-3.3718,54.6419],[-3.3491,54.6417],[-3.3512,54.6438],[-3.3488,54.6487],[-3.3342,54.6553],[-3.3254,54.6652],[-3.3413,54.6764],[-3.3533,54.6799],[-3.3464,54.6849],[-3.3541,54.6863],[-3.3529,54.6896],[-3.3053,54.7213],[-3.3016,54.7219],[-3.2903,54.7135],[-3.2813,54.7145],[-3.2766,54.7187],[-3.2655,54.719],[-3.2619,54.716],[-3.2625,54.7106],[-3.2582,54.7097],[-3.2463,54.7197],[-3.2495,54.7264],[-3.1667,54.7405],[-3.1316,54.7321],[-3.1017,54.7403],[-3.1059,54.7463],[-3.1153,54.7504],[-3.1175,54.7567],[-3.0592,54.7629]]]},"properties":{"NAME":"LAKE DISTRICT","CODE":4,"DESIG_DATE":-580262400000}},{"type":"Feature","geometry":{"type":"Polygon","coordinates":[[[1.4768,52.8103],[1.4732,52.8059],[1.4783,52.8008],[1.4706,52.7984],[1.476,52.7917],[1.4903,52.7852],[1.4894,52.7785],[1.4847,52.7761],[1.4857,52.7725],[1.4953,52.7746],[1.4973,52.772],[1.4926,52.7698],[1.4975,52.7691],[1.5019,52.7618],[1.5086,52.761],[1.5087,52.7672],[1.5139,52.7663],[1.5159,52.7691],[1.5233,52.7648],[1.5144,52.7608],[1.528,52.7614],[1.5324,52.7548],[1.5258,52.7552],[1.5242,52.7526],[1.5185,52.7552],[1.5146,52.7518],[1.5188,52.749],[1.5175,52.7473],[1.5084,52.7485],[1.5054,52.7386],[1.5186,52.7393],[1.5261,52.7326],[1.5236,52.7299],[1.5257,52.7267],[1.5167,52.7233],[1.5109,52.7156],[1.5192,52.7115],[1.5149,52.7024],[1.5359,52.7018],[1.5353,52.71],[1.547,52.7034],[1.5576,52.71],[1.5618,52.7068],[1.5657,52.7082],[1.5639,52.7116],[1.5951,52.717],[1.5931,52.7279],[1.5712,52.7309],[1.564,52.735],[1.5537,52.7345],[1.5532,52.7418],[1.5715,52.7484],[1.5757,52.7465],[1.5758,52.7428],[1.5863,52.7412],[1.5895,52.7442],[1.6051,52.7396],[1.6072,52.7428],[1.5989,52.7479],[1.576,52.7529],[1.5896,52.7553],[1.6096,52.7526],[1.6122,52.7534],[1.6111,52.7565],[1.5996,52.7598],[1.6028,52.7646],[1.594,52.7648],[1.5949,52.7611],[1.5913,52.7599],[1.5682,52.7662],[1.5749,52.7689],[1.5649,52.7712],[1.5741,52.7739],[1.5585,52.7784],[1.5647,52.7835],[1.5823,52.7788],[1.5808,52.7757],[1.5857,52.7717],[1.5801,52.7698],[1.5807,52.7658],[1.5871,52.7672],[1.586,52.7706],[1.5963,52.7717],[1.6059,52.7707],[1.6136,52.7657],[1.6236,52.7682],[1.6381,52.756],[1.6393,52.752],[1.6345,52.7456],[1.6456,52.7433],[1.6529,52.7464],[1.6451,52.7543],[1.647,52.7565],[1.6516,52.7534],[1.6545,52.7584],[1.6787,52.7399],[1.671,52.7374],[1.6747,52.7323],[1.6712,52.7313],[1.6731,52.7253],[1.6633,52.7265],[1.6649,52.7223],[1.656,52.7218],[1.6539,52.7166],[1.6431,52.7126],[1.6398,52.7167],[1.6271,52.7129],[1.6292,52.7086],[1.6222,52.7037],[1.5999,52.7086],[1.5971,52.7038],[1.6048,52.6973],[1.59,52.7058],[1.5718,52.6989],[1.5706,52.6925],[1.5788,52.6916],[1.5752,52.6897],[1.5573,52.6935],[1.5548,52.6915],[1.5574,52.6813],[1.5908,52.6708],[1.5835,52.66],[1.5873,52.6599],[1.5915,52.6627],[1.5926,52.6604],[1.6039,52.6615],[1.6038,52.6652],[1.608,52.6622],[1.619,52.6633],[1.6208,52.6675],[1.6377,52.6649],[1.6389,52.6668],[1.6284,52.6733],[1.619,52.6734],[1.6254,52.6744],[1.6183,52.6776],[1.6368,52.6762],[1.6332,52.6827],[1.6401,52.6807],[1.645,52.6831],[1.6396,52.6856],[1.6413,52.6915],[1.636,52.6952],[1.6555,52.696],[1.6551,52.6925],[1.6601,52.6921],[1.6776,52.696],[1.6779,52.6927],[1.6659,52.6904],[1.6694,52.6791],[1.6514,52.6788],[1.6548,52.6732],[1.6668,52.6727],[1.6626,52.6694],[1.6634,52.6717],[1.6599,52.6725],[1.655,52.671],[1.6593,52.6678],[1.6533,52.6662],[1.6536,52.6687],[1.6465,52.6696],[1.646,52.6626],[1.6381,52.6577],[1.6359,52.6527],[1.6236,52.6531],[1.6253,52.6509],[1.6013,52.6485],[1.5987,52.645],[1.5895,52.6476],[1.5869,52.642],[1.596,52.6364],[1.6044,52.6357],[1.6369,52.6408],[1.6766,52.6386],[1.6603,52.6432],[1.6581,52.6465],[1.662,52.6435],[1.6702,52.6458],[1.6784,52.6421],[1.6954,52.6483],[1.6956,52.653],[1.6972,52.6491],[1.7031,52.6499],[1.6856,52.642],[1.6895,52.6402],[1.6934,52.6436],[1.7149,52.6459],[1.7189,52.6424],[1.7164,52.6379],[1.7201,52.6361],[1.717,52.6348],[1.7282,52.6335],[1.7275,52.6244],[1.7223,52.6197],[1.7235,52.6128],[1.7139,52.61],[1.7127,52.5998],[1.6974,52.5978],[1.6956,52.5904],[1.6562,52.5889],[1.6554,52.5762],[1.6503,52.576],[1.6471,52.5716],[1.6489,52.5687],[1.6427,52.562],[1.6441,52.5573],[1.63,52.552],[1.624,52.5371],[1.6264,52.53],[1.6541,52.5197],[1.6492,52.5148],[1.6533,52.5096],[1.7028,52.5044],[1.7026,52.4976],[1.6944,52.4954],[1.6974,52.4875],[1.6943,52.4782],[1.7002,52.4748],[1.7126,52.4775],[1.7079,52.4699],[1.6462,52.4549],[1.604,52.4614],[1.5964,52.4586],[1.5639,52.4645],[1.5627,52.4594],[1.5561,52.4542],[1.5332,52.4507],[1.485,52.4579],[1.4492,52.4532],[1.4338,52.4599],[1.415,52.453],[1.4086,52.4553],[1.4097,52.4656],[1.4208,52.472],[1.4419,52.4633],[1.4773,52.4741],[1.5136,52.4707],[1.5297,52.4726],[1.5328,52.469],[1.5412,52.4684],[1.5512,52.4692],[1.5507,52.4736],[1.5544,52.4762],[1.5707,52.4768],[1.5854,52.4816],[1.6069,52.4827],[1.616,52.4745],[1.6253,52.4728],[1.6455,52.4779],[1.6488,52.4737],[1.6682,52.4825],[1.6372,52.4917],[1.6398,52.4948],[1.6275,52.4986],[1.624,52.5054],[1.6167,52.5039],[1.6191,52.5052],[1.6123,52.5079],[1.6125,52.5107],[1.5902,52.5241],[1.5902,52.5351],[1.5869,52.5382],[1.5733,52.5379],[1.5587,52.5312],[1.5641,52.5369],[1.5355,52.5489],[1.5317,52.5421],[1.5275,52.5413],[1.5292,52.5354],[1.5167,52.5356],[1.514,52.5322],[1.503,52.5384],[1.4997,52.5341],[1.4821,52.5354],[1.4808,52.5382],[1.4873,52.5414],[1.4958,52.5403],[1.5076,52.5448],[1.5063,52.5473],[1.5201,52.5478],[1.5205,52.5501],[1.514,52.5544],[1.5007,52.5537],[1.4882,52.5695],[1.476,52.579],[1.4611,52.5753],[1.4554,52.5774],[1.4568,52.5791],[1.4387,52.5817],[1.4383,52.5869],[1.4338,52.5897],[1.4369,52.5923],[1.4311,52.599],[1.4352,52.6001],[1.4346,52.6026],[1.424,52.6138],[1.4133,52.6153],[1.3879,52.6004],[1.3852,52.6038],[1.3734,52.6069],[1.3655,52.6226],[1.3598,52.6192],[1.3157,52.6134],[1.323,52.6211],[1.3122,52.6198],[1.3042,52.6226],[1.3029,52.6262],[1.3084,52.6343],[1.288,52.6333],[1.3087,52.6344],[1.3033,52.6255],[1.3122,52.62],[1.3224,52.6213],[1.3207,52.6228],[1.3253,52.6266],[1.3614,52.6277],[1.3801,52.6239],[1.38,52.6199],[1.3891,52.6189],[1.3899,52.6163],[1.4227,52.6253],[1.4515,52.6159],[1.4534,52.6103],[1.4613,52.6092],[1.4605,52.6058],[1.4727,52.6064],[1.4762,52.6102],[1.482,52.609],[1.4785,52.6011],[1.5021,52.5953],[1.5001,52.5937],[1.5048,52.5927],[1.5017,52.5911],[1.5025,52.5872],[1.5113,52.5857],[1.5081,52.5805],[1.5148,52.5782],[1.5277,52.5837],[1.5312,52.5791],[1.5551,52.5713],[1.5537,52.5688],[1.563,52.5593],[1.5807,52.5577],[1.5772,52.5638],[1.5698,52.5646],[1.5747,52.5668],[1.5715,52.5698],[1.5756,52.5664],[1.5863,52.5706],[1.5822,52.5748],[1.5847,52.5814],[1.5702,52.584],[1.5758,52.5846],[1.5734,52.5894],[1.5798,52.5924],[1.5773,52.5927],[1.5744,52.6048],[1.5803,52.6091],[1.5696,52.6091],[1.5694,52.6135],[1.5549,52.6134],[1.5606,52.6056],[1.5529,52.6125],[1.5437,52.6094],[1.5467,52.6141],[1.5381,52.6147],[1.5502,52.6175],[1.5491,52.6245],[1.544,52.6261],[1.5583,52.6314],[1.5471,52.6346],[1.5596,52.6406],[1.5449,52.645],[1.5436,52.6483],[1.5501,52.6527],[1.5471,52.6549],[1.5537,52.6534],[1.5473,52.6624],[1.5287,52.6619],[1.5182,52.6686],[1.5183,52.6723],[1.5109,52.6741],[1.5048,52.6709],[1.5069,52.6689],[1.4986,52.6704],[1.5005,52.6647],[1.4929,52.6707],[1.4762,52.6635],[1.4732,52.6663],[1.5036,52.676],[1.4884,52.6774],[1.4802,52.6745],[1.4856,52.6768],[1.4845,52.6815],[1.4679,52.6859],[1.4536,52.68],[1.4523,52.6841],[1.4628,52.6872],[1.4597,52.6918],[1.4503,52.6928],[1.4471,52.6968],[1.444,52.6946],[1.4471,52.6922],[1.4412,52.6936],[1.4345,52.6852],[1.429,52.683],[1.4321,52.6847],[1.4316,52.6884],[1.403,52.6948],[1.4123,52.6968],[1.4171,52.7027],[1.404,52.7111],[1.4003,52.7108],[1.394,52.7001],[1.363,52.7003],[1.3578,52.6925],[1.3581,52.6988],[1.3512,52.6988],[1.3629,52.7031],[1.3688,52.7108],[1.3747,52.7095],[1.374,52.7124],[1.3811,52.7143],[1.3813,52.7173],[1.3738,52.722],[1.3587,52.7215],[1.3543,52.725],[1.3546,52.7277],[1.3731,52.7292],[1.3781,52.7271],[1.3752,52.726],[1.3779,52.7218],[1.3898,52.7175],[1.3856,52.7115],[1.3879,52.7111],[1.3911,52.715],[1.401,52.7165],[1.4082,52.7159],[1.4096,52.7121],[1.4168,52.7092],[1.425,52.7131],[1.4317,52.7082],[1.4441,52.7079],[1.448,52.7194],[1.4593,52.7166],[1.4642,52.7189],[1.4656,52.7125],[1.4559,52.7082],[1.4632,52.7079],[1.462,52.7058],[1.4706,52.6972],[1.4903,52.6964],[1.4915,52.6992],[1.4846,52.7023],[1.4839,52.7077],[1.4916,52.7112],[1.49,52.7173],[1.4809,52.7258],[1.4844,52.7269],[1.4908,52.7216],[1.4961,52.7294],[1.4867,52.7367],[1.4746,52.7339],[1.4666,52.7359],[1.48,52.7431],[1.4866,52.7396],[1.4911,52.742],[1.4907,52.7502],[1.4937,52.7527],[1.4888,52.7539],[1.4933,52.7554],[1.4847,52.7656],[1.4763,52.7637],[1.4677,52.7679],[1.4548,52.7679],[1.4527,52.7709],[1.4563,52.7775],[1.4666,52.7748],[1.4787,52.7813],[1.4703,52.789],[1.46,52.7847],[1.4498,52.7891],[1.4519,52.7933],[1.4611,52.7899],[1.4727,52.7908],[1.4653,52.799],[1.46,52.7993],[1.4681,52.8007],[1.4632,52.8037],[1.4697,52.8036],[1.4685,52.8108],[1.4768,52.8103]],[[1.726,52.6227],[1.7251,52.6265],[1.6996,52.6201],[1.7133,52.6184],[1.721,52.6114],[1.7233,52.6134],[1.7219,52.6201],[1.726,52.6227]]]},"properties":{"NAME":"THE BROADS","CODE":1,"DESIG_DATE":607392000000}},{"type":"Feature","geometry":{"type":"Polygon","coordinates":[[[-0.7978,50.8657],[-0.7996,50.8677],[-0.7944,50.8714],[-0.8229,50.87],[-0.8323,50.8562],[-0.8548,50.8544],[-0.863,50.8573],[-0.8554,50.8615],[-0.8592,50.8675],[-0.868,50.8687],[-0.8667,50.8727],[-0.8879,50.8774],[-0.8922,50.8729],[-0.8908,50.8702],[-0.9218,50.8653],[-0.918,50.872],[-0.9221,50.8729],[-0.9199,50.8748],[-0.9389,50.8729],[-0.9478,50.8848],[-0.9576,50.8906],[-0.9511,50.8979],[-0.9563,50.8937],[-0.9565,50.898],[-0.9637,50.8989],[-0.9769,50.8923],[-0.9894,50.903],[-0.9835,50.9138],[-0.9962,50.9155],[-0.9976,50.9214],[-0.9938,50.9343],[-0.9838,50.9447],[-1.0057,50.9462],[-1.0054,50.9499],[-1.011,50.9486],[-1.0109,50.9447],[-1.0149,50.9437],[-1.0122,50.9408],[-1.0123,50.9255],[-1.0165,50.9247],[-1.0217,50.9172],[-1.0309,50.9143],[-1.0369,50.9148],[-1.0327,50.9244],[-1.0445,50.9236],[-1.0545,50.9131],[-1.0718,50.9168],[-1.0776,50.9136],[-1.0881,50.9226],[-1.0927,50.9158],[-1.1124,50.9253],[-1.122,50.92],[-1.1348,50.9344],[-1.1453,50.9234],[-1.1521,50.923],[-1.1564,50.9183],[-1.1455,50.9212],[-1.1408,50.9193],[-1.1398,50.9076],[-1.1349,50.904],[-1.1415,50.9006],[-1.1534,50.9056],[-1.1613,50.895],[-1.1841,50.8997],[-1.1818,50.9066],[-1.1864,50.9088],[-1.1823,50.9094],[-1.184,50.9124],[-1.1787,50.9189],[-1.1624,50.9269],[-1.1762,50.9382],[-1.1779,50.9428],[-1.1756,50.946],[-1.1811,50.9446],[-1.1817,50.9474],[-1.1912,50.9515],[-1.1939,50.9465],[-1.2035,50.9461],[-1.2069,50.9517],[-1.193,50.9542],[-1.1933,50.957],[-1.2229,50.9578],[-1.2534,50.9713],[-1.2566,50.9694],[-1.2565,50.9731],[-1.2601,50.9747],[-1.2579,50.9783],[-1.2841,50.9847],[-1.2802,50.9852],[-1.2816,50.989],[-1.2886,50.9881],[-1.2894,50.9972],[-1.298,51.0004],[-1.301,50.9994],[-1.3011,50.9953],[-1.3089,50.995],[-1.3046,50.9977],[-1.3062,51.0044],[-1.3208,51.0044],[-1.3283,50.9948],[-1.3366,51.0003],[-1.3228,51.027],[-1.3257,51.0277],[-1.3268,51.0399],[-1.3194,51.0516],[-1.3146,51.0508],[-1.3131,51.0527],[-1.3155,51.0533],[-1.3111,51.057],[-1.3081,51.0549],[-1.3113,51.0499],[-1.2985,51.0505],[-1.2909,51.0591],[-1.2926,51.0641],[-1.2897,51.0708],[-1.2929,51.0793],[-1.2967,51.0788],[-1.301,51.0675],[-1.3071,51.0643],[-1.3095,51.0666],[-1.3052,51.0692],[-1.3074,51.0702],[-1.3052,51.0724],[-1.309,51.0736],[-1.2885,51.0973],[-1.2467,51.0941],[-1.2231,51.0959],[-1.1817,51.0864],[-1.187,51.0823],[-1.1715,51.0795],[-1.1734,51.0642],[-1.1688,51.0579],[-1.153,51.0612],[-1.1512,51.0659],[-1.1439,51.0677],[-1.112,51.0609],[-1.0713,51.0702],[-1.0368,51.0699],[-1.0341,51.0736],[-1.0393,51.0913],[-1.0224,51.095],[-1.0171,51.0928],[-1.0174,51.0966],[-1.0323,51.1122],[-1.028,51.1177],[-0.9857,51.1365],[-0.9654,51.1325],[-0.9684,51.1257],[-0.9767,51.1194],[-0.9749,51.1167],[-0.9811,51.1135],[-0.9775,51.1086],[-0.9436,51.1079],[-0.9291,51.1131],[-0.9291,51.118],[-0.9424,51.1175],[-0.941,51.1254],[-0.9448,51.1281],[-0.9329,51.1392],[-0.9212,51.1446],[-0.92,51.1516],[-0.916,51.1518],[-0.915,51.1633],[-0.899,51.1643],[-0.8976,51.1744],[-0.8787,51.1774],[-0.8389,51.1933],[-0.8366,51.1857],[-0.8472,51.1788],[-0.8358,51.1805],[-0.8307,51.1849],[-0.8266,51.18],[-0.8331,51.151],[-0.8706,51.151],[-0.8821,51.1381],[-0.8932,51.1344],[-0.8876,51.1327],[-0.889,51.1294],[-0.8848,51.1291],[-0.8859,51.1266],[-0.8908,51.1257],[-0.8964,51.1184],[-0.9006,51.12],[-0.8976,51.125],[-0.9012,51.124],[-0.905,51.1143],[-0.9003,51.1066],[-0.9083,51.1049],[-0.9078,51.1016],[-0.8912,51.0975],[-0.8813,51.1006],[-0.8804,51.0978],[-0.8748,51.1],[-0.8548,51.098],[-0.8496,51.0942],[-0.8377,51.0958],[-0.826,51.0895],[-0.8257,51.0839],[-0.8451,51.0776],[-0.8439,51.0725],[-0.8378,51.0688],[-0.8244,51.0799],[-0.8116,51.0796],[-0.8069,51.0785],[-0.8101,51.075],[-0.8034,51.0737],[-0.8063,51.0668],[-0.8024,51.0695],[-0.795,51.0659],[-0.7809,51.0793],[-0.7624,51.0855],[-0.7544,51.0856],[-0.7523,51.0821],[-0.7409,51.0831],[-0.7397,51.0769],[-0.7349,51.0818],[-0.733,51.0775],[-0.7309,51.0786],[-0.7332,51.081],[-0.7232,51.0778],[-0.7067,51.0788],[-0.6969,51.0714],[-0.6871,51.0756],[-0.669,51.0774],[-0.664,51.0817],[-0.6294,51.089],[-0.621,51.0882],[-0.6202,51.0832],[-0.625,51.0781],[-0.6127,51.0697],[-0.6055,51.0702],[-0.5999,51.0638],[-0.5995,51.0438],[-0.5944,51.04],[-0.594,51.029],[-0.5807,51.0245],[-0.5898,51.0154],[-0.5891,51.0109],[-0.5731,51.0121],[-0.5634,51.0077],[-0.5595,51.0085],[-0.5608,51.0117],[-0.5564,51.0082],[-0.5491,51.0189],[-0.5193,51.0255],[-0.5261,51.0159],[-0.5333,51.0143],[-0.5224,51.0133],[-0.5268,50.9979],[-0.5123,50.9925],[-0.5095,50.9886],[-0.5033,50.9907],[-0.5048,50.9871],[-0.5,50.9856],[-0.5008,50.9771],[-0.5168,50.9792],[-0.5189,50.9712],[-0.5257,50.971],[-0.5279,50.9665],[-0.5208,50.9619],[-0.5214,50.9552],[-0.4921,50.9565],[-0.4856,50.9546],[-0.4821,50.9476],[-0.4665,50.943],[-0.4636,50.9394],[-0.4671,50.9344],[-0.4754,50.9354],[-0.4828,50.9268],[-0.4764,50.9202],[-0.4771,50.9152],[-0.4685,50.9164],[-0.4582,50.9119],[-0.4487,50.9144],[-0.4492,50.91],[-0.441,50.9149],[-0.4216,50.911],[-0.4157,50.9216],[-0.4121,50.919],[-0.4142,50.917],[-0.4061,50.9121],[-0.4085,50.909],[-0.4037,50.9062],[-0.3916,50.9096],[-0.3622,50.9095],[-0.3355,50.8992],[-0.3318,50.8946],[-0.3357,50.8912],[-0.3338,50.8871],[-0.3369,50.8861],[-0.3363,50.882],[-0.3288,50.8825],[-0.3277,50.8777],[-0.3239,50.8808],[-0.3086,50.883],[-0.2966,50.8786],[-0.2949,50.8844],[-0.2893,50.8852],[-0.2869,50.8901],[-0.2775,50.8894],[-0.2768,50.894],[-0.2703,50.8984],[-0.2686,50.9033],[-0.2731,50.9088],[-0.2687,50.9111],[-0.2604,50.9066],[-0.2598,50.9104],[-0.2265,50.9116],[-0.2292,50.9192],[-0.2228,50.9232],[-0.2222,50.9199],[-0.215,50.9227],[-0.2169,50.9206],[-0.2064,50.9174],[-0.192,50.92],[-0.1783,50.9283],[-0.1798,50.9328],[-0.1514,50.9195],[-0.1303,50.9183],[-0.1317,50.9201],[-0.1264,50.9221],[-0.1308,50.9269],[-0.1234,50.9329],[-0.12,50.9406],[-0.1162,50.9405],[-0.1142,50.9445],[-0.1057,50.9422],[-0.1035,50.9463],[-0.0956,50.9456],[-0.0975,50.9406],[-0.0941,50.9359],[-0.0977,50.932],[-0.0924,50.9293],[-0.0938,50.9277],[-0.0757,50.9272],[-0.0746,50.9225],[-0.0656,50.9208],[-0.0551,50.9204],[-0.0494,50.9254],[-0.037,50.9217],[-0.0203,50.9131],[-0.0096,50.9038],[-0.0118,50.8998],[-0.0072,50.9017],[-0.0032,50.8939],[0.0034,50.899],[0.0063,50.8933],[0.0096,50.8952],[0.0159,50.889],[0.0255,50.8882],[0.0424,50.8992],[0.0537,50.8958],[0.049,50.8859],[0.0605,50.8902],[0.0756,50.8902],[0.0754,50.8869],[0.0848,50.8806],[0.0837,50.8787],[0.0929,50.878],[0.0893,50.8738],[0.0967,50.8743],[0.0886,50.8665],[0.0706,50.8592],[0.077,50.8539],[0.1095,50.8519],[0.133,50.8434],[0.1409,50.8347],[0.1609,50.8268],[0.2368,50.819],[0.2354,50.8162],[0.238,50.8164],[0.2316,50.8095],[0.2408,50.8045],[0.2461,50.8054],[0.2498,50.7988],[0.2447,50.7947],[0.2488,50.7934],[0.2445,50.7915],[0.2532,50.7887],[0.2486,50.7826],[0.2442,50.7819],[0.2463,50.7774],[0.2524,50.7752],[0.2491,50.7701],[0.2552,50.7704],[0.2504,50.7673],[0.2564,50.7649],[0.2706,50.7684],[0.2724,50.7665],[0.2625,50.7599],[0.2529,50.7579],[0.2573,50.7552],[0.2631,50.7568],[0.2593,50.7552],[0.2612,50.7519],[0.2706,50.7518],[0.2677,50.7486],[0.2705,50.7477],[0.2567,50.7342],[0.2185,50.7354],[0.2053,50.7376],[0.1979,50.7432],[0.1536,50.7577],[0.1387,50.7541],[0.1138,50.7602],[0.1085,50.7646],[0.115,50.7658],[0.1133,50.7687],[0.1252,50.7658],[0.1334,50.7681],[0.1295,50.7849],[0.1142,50.7848],[0.105,50.7913],[0.0897,50.7815],[0.08,50.7831],[0.084,50.7855],[0.0756,50.7904],[0.0711,50.7887],[0.0763,50.7839],[0.0762,50.7794],[0.0667,50.7822],[0.0696,50.7853],[0.0634,50.7868],[0.0592,50.7972],[0.0728,50.8014],[0.0654,50.8035],[0.0701,50.8055],[0.0681,50.8079],[0.0586,50.8057],[0.0573,50.8131],[0.0534,50.8143],[0.0565,50.817],[0.0475,50.814],[0.0541,50.8057],[0.0506,50.8026],[0.0367,50.8009],[0.0422,50.7985],[0.033,50.7896],[0.0193,50.7937],[0.0209,50.7975],[0.0094,50.8023],[0.0142,50.8101],[0.008,50.8123],[-0.0065,50.807],[-0.0137,50.7987],[-0.0217,50.8001],[-0.0229,50.7962],[-0.031,50.7973],[-0.02,50.8072],[-0.0347,50.8056],[-0.0224,50.8133],[-0.0341,50.8133],[-0.0323,50.8154],[-0.0347,50.8158],[-0.0361,50.8125],[-0.0453,50.8115],[-0.0479,50.8058],[-0.053,50.8051],[-0.0547,50.8073],[-0.047,50.8119],[-0.0597,50.8097],[-0.0652,50.8197],[-0.0709,50.8234],[-0.0744,50.8192],[-0.0811,50.8184],[-0.0712,50.8113],[-0.0626,50.8112],[-0.0602,50.8074],[-0.0631,50.8039],[-0.0575,50.8016],[-0.0938,50.8099],[-0.0891,50.8112],[-0.0877,50.8153],[-0.1035,50.8171],[-0.0965,50.8189],[-0.094,50.8239],[-0.0957,50.8276],[-0.0921,50.8303],[-0.0996,50.8317],[-0.1002,50.8344],[-0.087,50.8344],[-0.0834,50.8316],[-0.0755,50.8366],[-0.0724,50.8282],[-0.0666,50.8234],[-0.0585,50.83],[-0.0595,50.837],[-0.067,50.84],[-0.0996,50.8351],[-0.1039,50.8359],[-0.1034,50.8399],[-0.0988,50.8364],[-0.0968,50.8402],[-0.0891,50.8403],[-0.0876,50.844],[-0.099,50.846],[-0.1013,50.8421],[-0.1112,50.8434],[-0.1088,50.8428],[-0.1006,50.8533],[-0.0944,50.8546],[-0.0979,50.8557],[-0.084,50.857],[-0.0853,50.8594],[-0.0788,50.8611],[-0.0813,50.8651],[-0.0777,50.8664],[-0.0887,50.8738],[-0.0919,50.8712],[-0.0905,50.8623],[-0.0995,50.8578],[-0.1083,50.8616],[-0.1047,50.8627],[-0.1085,50.8663],[-0.1157,50.8672],[-0.1165,50.8618],[-0.1042,50.8575],[-0.1201,50.8471],[-0.1248,50.8504],[-0.1319,50.85],[-0.1286,50.8543],[-0.1331,50.8554],[-0.122,50.8612],[-0.1208,50.8699],[-0.1275,50.8712],[-0.1551,50.869],[-0.1603,50.8724],[-0.1521,50.8627],[-0.167,50.8622],[-0.174,50.8574],[-0.1771,50.8593],[-0.1872,50.8556],[-0.2179,50.8538],[-0.214,50.851],[-0.2149,50.8479],[-0.2233,50.8569],[-0.232,50.8594],[-0.2372,50.8555],[-0.2294,50.8457],[-0.2783,50.846],[-0.3126,50.8387],[-0.316,50.8429],[-0.3277,50.841],[-0.3405,50.8437],[-0.3363,50.8377],[-0.3632,50.8348],[-0.3636,50.8382],[-0.3711,50.838],[-0.3701,50.8408],[-0.3888,50.8381],[-0.3915,50.8524],[-0.3978,50.8579],[-0.405,50.8539],[-0.3987,50.8426],[-0.406,50.8517],[-0.4119,50.8499],[-0.4127,50.8409],[-0.4306,50.8402],[-0.4301,50.8357],[-0.4377,50.834],[-0.4344,50.8228],[-0.4433,50.8216],[-0.445,50.8262],[-0.472,50.8273],[-0.4704,50.8408],[-0.5351,50.8427],[-0.5519,50.8546],[-0.5623,50.8572],[-0.5608,50.853],[-0.5731,50.8546],[-0.5732,50.8516],[-0.5705,50.8522],[-0.5738,50.849],[-0.5767,50.8508],[-0.5815,50.8453],[-0.5907,50.8465],[-0.5897,50.8428],[-0.5953,50.8421],[-0.6011,50.8447],[-0.6044,50.8523],[-0.6133,50.849],[-0.6171,50.8532],[-0.6235,50.853],[-0.6236,50.8574],[-0.6521,50.8575],[-0.6626,50.8652],[-0.6662,50.8571],[-0.6772,50.8571],[-0.6776,50.8653],[-0.6731,50.867],[-0.6858,50.8671],[-0.685,50.8707],[-0.6899,50.8716],[-0.7131,50.8683],[-0.7129,50.8646],[-0.7227,50.8602],[-0.7324,50.8633],[-0.7727,50.8653],[-0.7775,50.8686],[-0.7795,50.864],[-0.7978,50.8657]]]},"properties":{"NAME":"SOUTH DOWNS","CODE":10,"DESIG_DATE":1269993600000}},{"type":"Feature","geometry":{"type":"Polygon","coordinates":[[[-2.551,54.9973],[-2.5638,55.0044],[-2.5615,55.009],[-2.5734,55.0065],[-2.5731,55.0163],[-2.5524,55.0211],[-2.5396,55.0289],[-2.5276,55.0291],[-2.5269,55.0329],[-2.5123,55.0338],[-2.51,55.0364],[-2.5045,55.0332],[-2.5054,55.0368],[-2.4825,55.0405],[-2.4875,55.0478],[-2.4944,55.0507],[-2.4909,55.0545],[-2.4945,55.0531],[-2.5008,55.0566],[-2.5027,55.0608],[-2.4999,55.062],[-2.504,55.0625],[-2.4922,55.0681],[-2.5011,55.0754],[-2.4947,55.0818],[-2.4861,55.0815],[-2.5028,55.0913],[-2.4902,55.1142],[-2.4921,55.1155],[-2.4363,55.1188],[-2.4328,55.1249],[-2.4001,55.1246],[-2.3931,55.1298],[-2.3953,55.1333],[-2.3879,55.1341],[-2.3897,55.1374],[-2.3647,55.1473],[-2.3615,55.1514],[-2.363,55.1554],[-2.3761,55.1583],[-2.3902,55.1559],[-2.3929,55.1524],[-2.4018,55.1538],[-2.4054,55.1635],[-2.3999,55.1654],[-2.4271,55.1654],[-2.4276,55.1621],[-2.444,55.1599],[-2.4397,55.1645],[-2.4286,55.1675],[-2.4386,55.1726],[-2.446,55.1674],[-2.4362,55.1763],[-2.43,55.1762],[-2.4317,55.1786],[-2.443,55.1824],[-2.4447,55.1797],[-2.4639,55.176],[-2.4688,55.1802],[-2.467,55.1831],[-2.4571,55.1853],[-2.4518,55.1808],[-2.439,55.1829],[-2.4197,55.1735],[-2.4052,55.1945],[-2.3875,55.1931],[-2.383,55.1972],[-2.3604,55.2004],[-2.3614,55.2049],[-2.3483,55.2152],[-2.3485,55.2199],[-2.3437,55.2238],[-2.3494,55.2295],[-2.3192,55.235],[-2.3307,55.2577],[-2.3226,55.2575],[-2.3191,55.2621],[-2.3364,55.2818],[-2.3402,55.2969],[-2.3466,55.3069],[-2.3793,55.3211],[-2.4162,55.3252],[-2.4601,55.3386],[-2.4643,55.3471],[-2.4727,55.3491],[-2.4774,55.3544],[-2.4611,55.3532],[-2.4435,55.3593],[-2.4292,55.3565],[-2.4149,55.3589],[-2.4024,55.3546],[-2.3992,55.3482],[-2.3789,55.3492],[-2.3729,55.355],[-2.3375,55.3672],[-2.3463,55.3731],[-2.3301,55.3812],[-2.3347,55.3831],[-2.3355,55.3926],[-2.345,55.3993],[-2.3333,55.4026],[-2.3357,55.4082],[-2.3133,55.4068],[-2.3126,55.4099],[-2.2963,55.4147],[-2.2945,55.4205],[-2.2739,55.426],[-2.2706,55.4296],[-2.2622,55.4286],[-2.2606,55.4329],[-2.2312,55.4284],[-2.2056,55.4375],[-2.1948,55.4446],[-2.1884,55.4564],[-2.1897,55.4611],[-2.1656,55.4683],[-2.1738,55.4723],[-2.2012,55.4751],[-2.2064,55.4813],[-2.2028,55.4897],[-2.2194,55.5057],[-2.228,55.508],[-2.2243,55.5228],[-2.2275,55.5284],[-2.2332,55.5296],[-2.2322,55.5448],[-2.2408,55.5527],[-2.2406,55.5558],[-2.2479,55.5567],[-2.2554,55.5622],[-2.2457,55.5702],[-2.2414,55.5843],[-2.2076,55.5915],[-2.1949,55.5906],[-2.166,55.5801],[-2.1519,55.5671],[-2.1354,55.5656],[-2.1091,55.5683],[-2.0703,55.561],[-2.0591,55.5529],[-2.0426,55.5492],[-2.045,55.5416],[-2.0384,55.5385],[-2.0411,55.5313],[-2.021,55.5295],[-2.0198,55.5273],[-2.0247,55.5218],[-2.0408,55.5186],[-2.0276,55.5199],[-2.0238,55.5147],[-2.0172,55.5135],[-2.0145,55.5099],[-2.0251,55.5025],[-2.0155,55.5004],[-2.0099,55.4916],[-1.999,55.4937],[-1.9745,55.4713],[-1.9769,55.4682],[-1.9748,55.4512],[-1.9706,55.4455],[-1.9744,55.4404],[-1.9673,55.4411],[-1.9641,55.4381],[-1.9703,55.4303],[-1.9678,55.4265],[-1.9926,55.4061],[-2.0196,55.4009],[-2.016,55.3977],[-2.0208,55.3957],[-2.0172,55.3926],[-2.0185,55.3899],[-2.0116,55.39],[-2.0176,55.3797],[-2.0331,55.3707],[-2.081,55.3663],[-2.1073,55.3583],[-2.1172,55.3601],[-2.1144,55.3543],[-2.1256,55.3455],[-2.1187,55.3437],[-2.1138,55.3376],[-2.1077,55.3394],[-2.0747,55.3308],[-2.0622,55.3143],[-2.0469,55.3067],[-2.0498,55.3001],[-2.048,55.2939],[-2.0314,55.2961],[-2.033,55.2937],[-2.0237,55.2903],[-1.9829,55.3053],[-1.9664,55.3071],[-1.9482,55.3033],[-1.9359,55.2895],[-1.8953,55.2935],[-1.8971,55.2859],[-1.9076,55.2736],[-1.899,55.2634],[-1.9118,55.2556],[-1.9615,55.2627],[-1.9702,55.2492],[-1.9924,55.2512],[-2.0111,55.242],[-2.0329,55.2429],[-2.0345,55.2387],[-2.0229,55.2346],[-2.0247,55.2233],[-2.0604,55.2115],[-2.0967,55.2206],[-2.1154,55.222],[-2.1123,55.2279],[-2.1187,55.2255],[-2.1171,55.2299],[-2.124,55.2333],[-2.1196,55.2374],[-2.1164,55.2361],[-2.1185,55.24],[-2.1457,55.2494],[-2.1492,55.2545],[-2.161,55.2509],[-2.1672,55.2444],[-2.1849,55.2395],[-2.1875,55.2433],[-2.1945,55.243],[-2.1821,55.2461],[-2.1809,55.2528],[-2.1888,55.2548],[-2.2047,55.2499],[-2.2208,55.2514],[-2.2251,55.2443],[-2.1804,55.1969],[-2.1757,55.1841],[-2.1934,55.1841],[-2.1869,55.1731],[-2.2113,55.1562],[-2.2308,55.1526],[-2.2363,55.1596],[-2.251,55.1641],[-2.2514,55.1575],[-2.247,55.1517],[-2.2488,55.1497],[-2.2541,55.1564],[-2.2641,55.1614],[-2.2623,55.1591],[-2.2696,55.1597],[-2.2766,55.1464],[-2.262,55.1429],[-2.2583,55.1366],[-2.2479,55.1323],[-2.2569,55.1242],[-2.2656,55.1256],[-2.2698,55.1211],[-2.2673,55.1123],[-2.2779,55.1003],[-2.2909,55.1005],[-2.2882,55.0918],[-2.2973,55.0882],[-2.2988,55.0787],[-2.3123,55.0706],[-2.2449,55.0703],[-2.2391,55.054],[-2.231,55.0432],[-2.2235,55.0446],[-2.22,55.0414],[-2.2157,55.0444],[-2.1804,55.0444],[-2.1761,55.0433],[-2.1711,55.034],[-2.1604,55.0304],[-2.1748,55.031],[-2.1741,55.0276],[-2.2142,55.03],[-2.2695,55.024],[-2.2686,55.0181],[-2.2766,55.0166],[-2.2675,55.0067],[-2.3514,54.9953],[-2.3606,54.9904],[-2.4247,54.9895],[-2.4995,54.9802],[-2.5284,54.9827],[-2.5298,54.9898],[-2.5338,54.9882],[-2.5368,54.9953],[-2.5451,54.9986],[-2.551,54.9973]]]},"properties":{"NAME":"NORTHUMBERLAND","CODE":6,"DESIG_DATE":-401068800000}},{"type":"Feature","geometry":{"type":"Polygon","coordinates":[[[-2.2716,54.0654],[-2.2753,54.0686],[-2.2762,54.0838],[-2.2863,54.0842],[-2.2844,54.075],[-2.2872,54.0724],[-2.3032,54.085],[-2.3298,54.093],[-2.3382,54.1024],[-2.3776,54.1081],[-2.4041,54.1278],[-2.4516,54.146],[-2.4607,54.1523],[-2.4584,54.1554],[-2.4722,54.1539],[-2.4965,54.157],[-2.5425,54.1736],[-2.5637,54.1866],[-2.5924,54.1976],[-2.5894,54.2022],[-2.5991,54.2061],[-2.5961,54.2092],[-2.6018,54.2107],[-2.6036,54.2075],[-2.6131,54.2073],[-2.6126,54.2184],[-2.6182,54.2243],[-2.6221,54.2375],[-2.627,54.2402],[-2.622,54.2429],[-2.6175,54.2565],[-2.6184,54.2718],[-2.625,54.2762],[-2.6155,54.2955],[-2.6011,54.2971],[-2.5992,54.2996],[-2.6018,54.3011],[-2.5984,54.3037],[-2.6011,54.3047],[-2.594,54.3081],[-2.5951,54.316],[-2.6042,54.318],[-2.601,54.3206],[-2.607,54.3243],[-2.5995,54.3232],[-2.5925,54.3309],[-2.5862,54.3317],[-2.5949,54.3474],[-2.5949,54.3574],[-2.5927,54.364],[-2.5822,54.3699],[-2.5802,54.3804],[-2.5818,54.385],[-2.6016,54.3986],[-2.6042,54.406],[-2.5925,54.4316],[-2.5807,54.4404],[-2.557,54.4429],[-2.5644,54.4458],[-2.564,54.4539],[-2.5809,54.4505],[-2.5844,54.4531],[-2.5821,54.4578],[-2.5913,54.46],[-2.5955,54.4652],[-2.6026,54.4613],[-2.6058,54.4665],[-2.6147,54.4656],[-2.6178,54.4756],[-2.6322,54.4804],[-2.6425,54.4933],[-2.6478,54.5076],[-2.6444,54.5122],[-2.6306,54.514],[-2.6287,54.5183],[-2.6363,54.534],[-2.6083,54.5339],[-2.5992,54.5386],[-2.5964,54.5441],[-2.5826,54.5492],[-2.5821,54.5558],[-2.5744,54.5575],[-2.5788,54.5625],[-2.5676,54.569],[-2.5462,54.5557],[-2.5368,54.5577],[-2.5316,54.5462],[-2.5,54.5458],[-2.4894,54.539],[-2.4872,54.5296],[-2.4743,54.5294],[-2.4644,54.5249],[-2.4638,54.5198],[-2.4591,54.5208],[-2.4308,54.5003],[-2.4276,54.4928],[-2.4003,54.485],[-2.3926,54.4792],[-2.379,54.479],[-2.3648,54.4646],[-2.3519,54.4617],[-2.3495,54.4567],[-2.3323,54.4522],[-2.3246,54.4454],[-2.292,54.4319],[-2.2929,54.4393],[-2.2714,54.4409],[-2.2654,54.4429],[-2.2682,54.4472],[-2.2501,54.4519],[-2.2357,54.4482],[-2.1893,54.449],[-2.1775,54.4616],[-2.1705,54.4612],[-2.1736,54.4586],[-2.1601,54.4554],[-2.1529,54.4473],[-2.1428,54.4447],[-2.1372,54.4461],[-2.1383,54.4488],[-2.1314,54.4532],[-2.1329,54.4551],[-2.1143,54.4642],[-2.0864,54.4684],[-2.0613,54.4806],[-2.0432,54.4836],[-2.0447,54.4752],[-2.0148,54.4716],[-1.9966,54.4668],[-1.9856,54.4599],[-1.9764,54.4598],[-1.9671,54.4459],[-1.9473,54.4388],[-1.9556,54.4335],[-1.9522,54.4315],[-1.9569,54.4277],[-1.9561,54.4173],[-1.9482,54.4093],[-1.9075,54.3887],[-1.9086,54.3844],[-1.9012,54.3847],[-1.8794,54.3941],[-1.8469,54.3973],[-1.8361,54.4011],[-1.826,54.4127],[-1.8021,54.4175],[-1.8057,54.4103],[-1.802,54.4065],[-1.7869,54.4079],[-1.7763,54.4044],[-1.7747,54.4002],[-1.7611,54.4026],[-1.7628,54.3971],[-1.7954,54.3982],[-1.805,54.3954],[-1.8186,54.3875],[-1.8252,54.377],[-1.8399,54.3716],[-1.8546,54.3766],[-1.8601,54.3755],[-1.8636,54.3665],[-1.8828,54.3526],[-1.9004,54.3546],[-1.9246,54.3494],[-1.9447,54.3525],[-1.9468,54.3462],[-1.9535,54.3425],[-1.9361,54.3347],[-1.9351,54.3201],[-1.9386,54.3197],[-1.9403,54.3155],[-1.9343,54.3123],[-1.9328,54.3071],[-1.9262,54.3083],[-1.9188,54.3048],[-1.9057,54.3046],[-1.8973,54.2996],[-1.8799,54.2978],[-1.882,54.292],[-1.8755,54.2888],[-1.877,54.2828],[-1.8681,54.2837],[-1.8652,54.2794],[-1.8317,54.2796],[-1.8258,54.2736],[-1.8067,54.2736],[-1.7797,54.2786],[-1.7788,54.2677],[-1.7641,54.2611],[-1.7749,54.2587],[-1.7788,54.2542],[-1.8037,54.256],[-1.8228,54.2509],[-1.8233,54.2475],[-1.8164,54.2408],[-1.828,54.2316],[-1.8794,54.2203],[-1.8864,54.21],[-1.8957,54.2103],[-1.9244,54.2002],[-1.9418,54.1992],[-1.9681,54.1919],[-1.9844,54.1857],[-2.0045,54.1729],[-1.9922,54.1551],[-1.9725,54.1581],[-1.9637,54.1522],[-1.9542,54.143],[-1.9572,54.1326],[-1.9482,54.1254],[-1.9221,54.1203],[-1.9055,54.1225],[-1.8953,54.1139],[-1.891,54.1044],[-1.8671,54.0976],[-1.8617,54.0805],[-1.8406,54.0706],[-1.8497,54.0624],[-1.8536,54.0533],[-1.8736,54.046],[-1.8687,54.0421],[-1.8724,54.0357],[-1.8535,54.0288],[-1.8481,54.0137],[-1.8349,54.0135],[-1.8309,54.0035],[-1.8195,53.9964],[-1.8188,53.9925],[-1.8268,53.9857],[-1.8168,53.9781],[-1.8629,53.9619],[-1.8613,53.9585],[-1.8705,53.9544],[-1.8787,53.9541],[-1.8789,53.9626],[-1.8931,53.9676],[-1.8952,53.9736],[-1.8916,53.9814],[-1.9077,53.9805],[-1.9243,53.9842],[-1.9382,53.9822],[-1.9442,53.9919],[-1.9839,53.9854],[-1.9837,53.9811],[-2.0051,53.9723],[-2.0347,53.9834],[-2.0392,53.9815],[-2.0372,53.9789],[-2.0448,53.9719],[-2.0455,53.9672],[-2.1321,54.0052],[-2.1459,54.0035],[-2.1501,54.0079],[-2.1746,54.0125],[-2.2143,54.0063],[-2.231,54.0129],[-2.2545,54.0164],[-2.2806,54.0311],[-2.2853,54.0385],[-2.2856,54.0555],[-2.2794,54.0546],[-2.2754,54.0641],[-2.2716,54.0654]],[[-2.2716,54.0654],[-2.2716,54.0654],[-2.2716,54.0654],[-2.2716,54.0654]]]},"properties":{"NAME":"YORKSHIRE DALES","CODE":9,"DESIG_DATE":-477360000000}}]}